OBJECT_NAME,OBJECT_ID,EPOCH,MEAN_MOTION,ECCENTRICITY,INCLINATION,RA_OF_ASC_NODE,ARG_OF_PERICENTER,MEAN_ANOMALY,EPHEMERIS_TYPE,CLASSIFICATION_TYPE,NORAD_CAT_ID,ELEMENT_SET_NO,REV_AT_EPOCH,BSTAR,MEAN_MOTION_DOT,MEAN_MOTION_DDOT
STARLINK-36709,2026-038J,2026-03-21T12:00:00.999648,15.55181119,.00011991,97.2850,91.3521,101.0015,251.2402,0,U,67969,999,510,-.38381292E-1,-.2278447E-1,0
STARLINK-36319,2026-038K,2026-03-21T12:00:00.999648,15.49320739,.00009312,97.2852,91.3126,107.8800,152.0281,0,U,67970,999,507,-.5944663E-2,-.312351E-2,0
STARLINK-36710,2026-038L,2026-03-21T12:00:00.999648,15.56117457,.00014906,97.2854,91.3616,74.9089,300.3951,0,U,67971,999,510,-.36992174E-1,-.2274386E-1,0
STARLINK-36894,2026-038M,2026-03-21T12:00:00.999648,15.56471230,.00013641,97.2851,91.3706,98.7218,287.5999,0,U,67972,999,510,-.35571355E-1,-.2222728E-1,0
STARLINK-36900,2026-038N,2026-03-21T12:00:00.999648,15.49394442,.00011481,97.2853,91.2451,105.9900,351.6675,0,U,67973,999,510,-.62654549E-2,-.329361E-2,0
STARLINK-36901,2026-038P,2026-03-21T12:00:00.999648,15.56586509,.00015437,97.2852,91.3695,76.7958,316.7593,0,U,67974,999,510,-.36419018E-1,-.2278185E-1,0
STARLINK-36883,2026-038Q,2026-03-21T12:00:00.999648,15.52806500,.00017104,97.2855,91.3659,96.7983,278.3175,0,U,67975,999,510,-.40070104E-1,-.2192277E-1,0
STARLINK-36880,2026-038R,2026-03-21T12:00:00.999648,15.49203953,.00016927,97.2857,91.2204,94.9855,302.5049,0,U,67976,999,510,-.12443487E-2,-.6723E-3,0
STARLINK-36904,2026-038S,2026-03-21T12:00:00.999648,15.52647327,.00017051,97.2855,91.3586,101.1169,263.3665,0,U,67977,999,510,-.40642225E-1,-.2208627E-1,0
STARLINK-36364,2026-038T,2026-03-21T12:00:00.999648,15.58738925,.00018629,97.2852,91.4038,87.3352,24.8245,0,U,67978,999,510,-.34056844E-1,-.2306766E-1,0
STARLINK-36359,2026-038U,2026-03-21T12:00:00.999648,15.54605342,.00013459,97.2850,91.3700,98.2792,287.9129,0,U,67979,999,510,-.3845576E-1,-.2240154E-1,0
STARLINK-36882,2026-038V,2026-03-21T12:00:00.999648,15.51923131,.00014549,97.2856,91.3610,94.7752,273.9647,0,U,67980,999,510,-.3986247E-1,-.2121097E-1,0
STARLINK-36874,2026-038W,2026-03-21T12:00:00.999648,15.59252575,.00017982,97.2849,91.4079,81.7953,42.2856,0,U,67981,999,510,-.33386832E-1,-.2306073E-1,0
STARLINK-36879,2026-038X,2026-03-21T12:00:00.999648,15.49228761,.00013055,97.2858,91.2567,116.0020,10.3084,0,U,67982,999,510,-.2082059E-2,-.111891E-2,0
STARLINK-36867,2026-038Y,2026-03-21T12:00:00.999648,15.49230146,.00015061,97.2855,91.2897,90.2357,110.0841,0,U,67983,999,510,-.21760037E-2,-.11687E-2,0
STARLINK-36266,2026-038Z,2026-03-21T12:00:00.999648,15.59723442,.00019215,97.2852,91.4166,92.4332,52.9105,0,U,67984,999,507,-.32720415E-1,-.2301788E-1,0
STARLINK-36802,2026-038AA,2026-03-21T14:00:54.546624,15.75274763,.00019354,97.2889,91.5359,152.6346,207.5022,0,U,67985,999,506,.1163032E-2,.177654E-2,0
STARLINK-36535,2026-039A,2026-03-21T12:00:00.999648,15.52634986,.00013141,42.9994,343.4824,258.7434,160.0384,0,U,67986,999,477,-.34160648E-1,-.1935874E-1,0
STARLINK-36744,2026-039B,2026-03-21T12:00:00.999648,15.54095992,.0001568,42.9993,343.3818,266.8357,192.4364,0,U,67987,999,477,-.32240501E-1,-.189462E-1,0
STARLINK-36734,2026-039C,2026-03-21T10:30:37.786176,15.50651057,.00015907,42.9987,344.9118,273.9499,86.1180,0,U,67988,999,347,.21223571E-2,.126524E-2,0
STARLINK-36957,2026-039D,2026-03-21T12:00:00.999648,15.52913928,.00013969,42.9998,343.4283,259.9819,179.8852,0,U,67989,999,477,-.30839913E-1,-.1752579E-1,0
STARLINK-36951,2026-039E,2026-03-21T12:00:00.999648,15.50588423,.00015482,42.9995,343.6785,258.3129,79.8751,0,U,67990,999,477,-.15160964E-2,-.88318E-3,0
STARLINK-36941,2026-039F,2026-03-21T10:29:45.052800,15.50641321,.0000755,42.9983,344.9050,296.5561,63.5221,0,U,67991,999,347,.15745328E-2,.93344E-3,0
STARLINK-36950,2026-039G,2026-03-21T12:00:00.999648,15.50714756,.00017842,43.0001,344.1606,268.7756,234.3264,0,U,67992,999,477,-.43079942E-2,-.246484E-2,0
STARLINK-36975,2026-039H,2026-03-21T12:00:00.999648,15.50686952,.00015676,43.0000,344.0634,265.7625,276.6623,0,U,67993,999,477,-.40595554E-2,-.232462E-2,0
STARLINK-36993,2026-039J,2026-03-21T12:00:00.999648,15.53081478,.00018474,42.9997,343.3624,265.4792,200.7935,0,U,67994,999,477,-.28941905E-1,-.166515E-1,0
STARLINK-36968,2026-039K,2026-03-21T12:00:00.999648,15.50696225,.00015747,43.0001,344.2635,260.2085,201.0970,0,U,67995,999,477,-.4303039E-2,-.246044E-2,0
STARLINK-36979,2026-039L,2026-03-21T12:00:00.999648,15.54744874,.00015349,42.9998,343.2564,263.6105,245.2067,0,U,67996,999,477,-.31621656E-1,-.1902386E-1,0
STARLINK-36994,2026-039M,2026-03-21T12:00:00.999648,15.50608204,.00020212,42.9998,343.5998,256.3357,112.6105,0,U,67997,999,477,-.1891849E-2,-.109904E-2,0
STARLINK-36988,2026-039N,2026-03-21T12:00:00.999648,15.50588884,.00015812,42.9999,343.5423,242.2917,150.4043,0,U,67998,999,477,-.129743E-2,-.75751E-3,0
